{
  "type": "FeatureCollection",
  "features": [
    {
      "type": "Feature",
      "properties": {
        "norad_id": 30826,
        "name": "FENGYUN 1C DEB",
        "group": "fengyun-1c-debris",
        "lat": -43.60903209213629,
        "lon": -15.152937367123748,
        "alt_km": 722.8690847190537,
        "timestamp": "2025-12-05T04:52:15.570945+00:00",
        "meta_object_name": "FENGYUN 1C DEB",
        "meta_object_id": "1999-025AVL",
        "meta_epoch": "2025-12-03T07:17:45.376224",
        "meta_mean_motion": 14.8209274,
        "meta_eccentricity": 0.0146116,
        "meta_inclination": 98.8673,
        "meta_ra_of_asc_node": 171.2968,
        "meta_arg_of_pericenter": 26.6766,
        "meta_mean_anomaly": 152.1532,
        "meta_ephemeris_type": 0,
        "meta_classification_type": "U",
        "meta_norad_cat_id": 30826,
        "meta_element_set_no": 999,
        "meta_rev_at_epoch": 146,
        "meta_bstar": 0.00061573,
        "meta_mean_motion_dot": 5.826e-05,
        "meta_mean_motion_ddot": 0,
        "tle_line1": "1 30826U 99025AVL 25337.30399741  .00005826  00000+0  61573-3 0  9995",
        "tle_line2": "2 30826  98.8673 171.2968 0146116  26.6766 152.1532 14.82092740  1465"
      },
      "geometry": {
        "type": "Point",
        "coordinates": [
          -15.152937367123748,
          -43.60903209213629
        ]
      }
    },
    {
      "type": "Feature",
      "properties": {
        "norad_id": 30827,
        "name": "FENGYUN 1C DEB",
        "group": "fengyun-1c-debris",
        "lat": 37.22758836442137,
        "lon": 151.185159051637,
        "alt_km": 747.9372921034592,
        "timestamp": "2025-12-05T04:52:15.570954+00:00",
        "meta_object_name": "FENGYUN 1C DEB",
        "meta_object_id": "1999-025AVM",
        "meta_epoch": "2025-12-03T05:26:11.474016",
        "meta_mean_motion": 14.37538922,
        "meta_eccentricity": 0.0043378,
        "meta_inclination": 99.0025,
        "meta_ra_of_asc_node": 322.1987,
        "meta_arg_of_pericenter": 207.4055,
        "meta_mean_anomaly": 152.4842,
        "meta_ephemeris_type": 0,
        "meta_classification_type": "U",
        "meta_norad_cat_id": 30827,
        "meta_element_set_no": 999,
        "meta_rev_at_epoch": 96412,
        "meta_bstar": 0.0034983,
        "meta_mean_motion_dot": 0.00010565,
        "meta_mean_motion_ddot": 0,
        "tle_line1": "1 30827U 99025AVM 25337.22652169  .00010565  00000+0  34983-2 0  9993",
        "tle_line2": "2 30827  99.0025 322.1987 0043378 207.4055 152.4842 14.37538922964129"
      },
      "geometry": {
        "type": "Point",
        "coordinates": [
          151.185159051637,
          37.22758836442137
        ]
      }
    },
    {
      "type": "Feature",
      "properties": {
        "norad_id": 30828,
        "name": "FENGYUN 1C DEB",
        "group": "fengyun-1c-debris",
        "lat": -3.071319083495359,
        "lon": -94.57148901321112,
        "alt_km": 504.35924207885546,
        "timestamp": "2025-12-05T04:52:15.570963+00:00",
        "meta_object_name": "FENGYUN 1C DEB",
        "meta_object_id": "1999-025AVN",
        "meta_epoch": "2025-12-04T13:29:17.549088",
        "meta_mean_motion": 14.76543176,
        "meta_eccentricity": 0.0210188,
        "meta_inclination": 98.3768,
        "meta_ra_of_asc_node": 85.2163,
        "meta_arg_of_pericenter": 204.7768,
        "meta_mean_anomaly": 173.9939,
        "meta_ephemeris_type": 0,
        "meta_classification_type": "U",
        "meta_norad_cat_id": 30828,
        "meta_element_set_no": 999,
        "meta_rev_at_epoch": 98536,
        "meta_bstar": 0.0036746,
        "meta_mean_motion_dot": 0.00037027,
        "meta_mean_motion_ddot": 0,
        "tle_line1": "1 30828U 99025AVN 25338.56200867  .00037027  00000+0  36746-2 0  9997",
        "tle_line2": "2 30828  98.3768  85.2163 0210188 204.7768 173.9939 14.76543176985369"
      },
      "geometry": {
        "type": "Point",
        "coordinates": [
          -94.57148901321112,
          -3.071319083495359
        ]
      }
    },
    {
      "type": "Feature",
      "properties": {
        "norad_id": 30829,
        "name": "FENGYUN 1C DEB",
        "group": "fengyun-1c-debris",
        "lat": -81.00180141443936,
        "lon": 49.321472943198785,
        "alt_km": 868.5632023522812,
        "timestamp": "2025-12-05T04:52:15.570972+00:00",
        "meta_object_name": "FENGYUN 1C DEB",
        "meta_object_id": "1999-025AVP",
        "meta_epoch": "2025-12-04T05:25:12.671904",
        "meta_mean_motion": 14.08633618,
        "meta_eccentricity": 0.0036376,
        "meta_inclination": 98.7751,
        "meta_ra_of_asc_node": 331.0996,
        "meta_arg_of_pericenter": 358.8254,
        "meta_mean_anomaly": 1.2824,
        "meta_ephemeris_type": 0,
        "meta_classification_type": "U",
        "meta_norad_cat_id": 30829,
        "meta_element_set_no": 999,
        "meta_rev_at_epoch": 96313,
        "meta_bstar": 0.00069875,
        "meta_mean_motion_dot": 1.166e-05,
        "meta_mean_motion_ddot": 0,
        "tle_line1": "1 30829U 99025AVP 25338.22584111  .00001166  00000+0  69875-3 0  9993",
        "tle_line2": "2 30829  98.7751 331.0996 0036376 358.8254   1.2824 14.08633618963131"
      },
      "geometry": {
        "type": "Point",
        "coordinates": [
          49.321472943198785,
          -81.00180141443936
        ]
      }
    },
    {
      "type": "Feature",
      "properties": {
        "norad_id": 30830,
        "name": "FENGYUN 1C DEB",
        "group": "fengyun-1c-debris",
        "lat": 28.212752314983526,
        "lon": -36.92626396226019,
        "alt_km": 872.3762373631098,
        "timestamp": "2025-12-05T04:52:15.570981+00:00",
        "meta_object_name": "FENGYUN 1C DEB",
        "meta_object_id": "1999-025AVQ",
        "meta_epoch": "2025-12-03T17:53:27.674016",
        "meta_mean_motion": 14.12214861,
        "meta_eccentricity": 0.00302942,
        "meta_inclination": 98.729,
        "meta_ra_of_asc_node": 326.3825,
        "meta_arg_of_pericenter": 214.7541,
        "meta_mean_anomaly": 328.1577,
        "meta_ephemeris_type": 0,
        "meta_classification_type": "U",
        "meta_norad_cat_id": 30830,
        "meta_element_set_no": 999,
        "meta_rev_at_epoch": 96472,
        "meta_bstar": 0.00037853681,
        "meta_mean_motion_dot": 6.56e-06,
        "meta_mean_motion_ddot": 0,
        "tle_line1": "1 30830U 99025AVQ 25337.74545919  .00000656  00000+0  37854-3 0  9999",
        "tle_line2": "2 30830  98.7290 326.3825 0030294 214.7541 328.1577 14.12214861964723"
      },
      "geometry": {
        "type": "Point",
        "coordinates": [
          -36.92626396226019,
          28.212752314983526
        ]
      }
    },
    {
      "type": "Feature",
      "properties": {
        "norad_id": 30831,
        "name": "FENGYUN 1C DEB",
        "group": "fengyun-1c-debris",
        "lat": 76.7605350139063,
        "lon": 87.09966800445292,
        "alt_km": 744.5936994777549,
        "timestamp": "2025-12-05T04:52:15.570990+00:00",
        "meta_object_name": "FENGYUN 1C DEB",
        "meta_object_id": "1999-025AVR",
        "meta_epoch": "2025-12-03T05:30:54.696672",
        "meta_mean_motion": 14.31052649,
        "meta_eccentricity": 0.0055822,
        "meta_inclination": 99.3279,
        "meta_ra_of_asc_node": 129.2978,
        "meta_arg_of_pericenter": 61.3241,
        "meta_mean_anomaly": 299.3536,
        "meta_ephemeris_type": 0,
        "meta_classification_type": "U",
        "meta_norad_cat_id": 30831,
        "meta_element_set_no": 999,
        "meta_rev_at_epoch": 65114,
        "meta_bstar": 0.00059432,
        "meta_mean_motion_dot": 1.543e-05,
        "meta_mean_motion_ddot": 0,
        "tle_line1": "1 30831U 99025AVR 25337.22979973  .00001543  00000+0  59432-3 0  9996",
        "tle_line2": "2 30831  99.3279 129.2978 0055822  61.3241 299.3536 14.31052649651142"
      },
      "geometry": {
        "type": "Point",
        "coordinates": [
          87.09966800445292,
          76.7605350139063
        ]
      }
    },
    {
      "type": "Feature",
      "properties": {
        "norad_id": 30833,
        "name": "FENGYUN 1C DEB",
        "group": "fengyun-1c-debris",
        "lat": -36.3045678167199,
        "lon": -62.98006745951786,
        "alt_km": 786.256689164321,
        "timestamp": "2025-12-05T04:52:15.570999+00:00",
        "meta_object_name": "FENGYUN 1C DEB",
        "meta_object_id": "1999-025AVT",
        "meta_epoch": "2025-11-30T16:08:15.979488",
        "meta_mean_motion": 14.26699546,
        "meta_eccentricity": 0.00328082,
        "meta_inclination": 99.8434,
        "meta_ra_of_asc_node": 119.2595,
        "meta_arg_of_pericenter": 214.1796,
        "meta_mean_anomaly": 145.7269,
        "meta_ephemeris_type": 0,
        "meta_classification_type": "U",
        "meta_norad_cat_id": 30833,
        "meta_element_set_no": 999,
        "meta_rev_at_epoch": 64239,
        "meta_bstar": 0.00062547884,
        "meta_mean_motion_dot": 1.467e-05,
        "meta_mean_motion_ddot": 0,
        "tle_line1": "1 30833U 99025AVT 25334.67240717  .00001467  00000+0  62548-3 0  9998",
        "tle_line2": "2 30833  99.8434 119.2595 0032808 214.1796 145.7269 14.26699546642399"
      },
      "geometry": {
        "type": "Point",
        "coordinates": [
          -62.98006745951786,
          -36.3045678167199
        ]
      }
    }
  ]
}